0 SL-6 R/B(2)
1 22952U 93079D   13280.11981971 -.00000755  00000-0  10000-3 0  4659
2 22952 061.9091 121.8033 7295373 269.2266 014.8749 02.05998097148897
0 SL-6 R/B(2)
1 22952U 93079D   13284.00328043 -.00000710  00000-0  10000-3 0  4668
2 22952 061.9175 121.1781 7296286 269.2882 014.8460 02.05992252148977
0 SL-6 R/B(2)
1 22952U 93079D   13292.25619283  .00001203  00000-0  10000-3 0  4671
2 22952 061.9219 119.8349 7300143 269.4152 014.7837 02.05980895149147
